{
  "norad_id": 51126,
  "name": "STARLINK-3386",
  "history": [
    {
      "epoch": "2026-03-28T15:16:24.041568Z",
      "apogee_km": 540.5484816605594,
      "perigee_km": 538.9130977150771,
      "latitude_deg": 5.7883654970446864e-05,
      "longitude_deg": 158.92208002773552,
      "height_km": 540.5731906646965,
      "semi_major_axis_km": 6917.867789687818,
      "eccentricity": 0.0001182,
      "inclination_deg": 53.2179,
      "raan_deg": 214.0762,
      "arg_perigee_deg": 86.2415,
      "mean_anomaly_deg": 273.8713,
      "mean_motion_rev_day": 15.08844122
    }
  ]
}