{"fetched_at":"2026-03-29T16:36:15Z","count":15609,"tles":[{"name":"STARLINK-3386","line1":"1 51126U 22005Y   26087.63638937 -.00000710  00000+0 -26502-4 0  9990","line2":"2 51126  53.2179 214.0762 0001182  86.2415 273.8713 15.08844122231602","category":"Starlink"}]}